$$SOE
2461302.500000000, A.D. 2026-Sep-19 00:00:00.0000, 4.793048522392342E+08, 9.792360344540472E+07, -4.933800518187945E+07,
2461309.500000000, A.D. 2026-Sep-26 00:00:00.0000, 4.763018131143340E+08, 1.068605474830951E+08, -5.193304884792295E+07,
2461316.500000000, A.D. 2026-Oct-03 00:00:00.0000, 4.731033313721973E+08, 1.157536038067190E+08, -5.450677868247056E+07,
2461323.500000000, A.D. 2026-Oct-10 00:00:00.0000, 4.697097688019813E+08, 1.245988882276501E+08, -5.705802888329251E+07,
2461330.500000000, A.D. 2026-Oct-17 00:00:00.0000, 4.661215663706664E+08, 1.333924965628670E+08, -5.958563084514645E+07,
2461337.500000000, A.D. 2026-Oct-24 00:00:00.0000, 4.623392456284268E+08, 1.421305057174701E+08, -6.208841356184706E+07,
2461344.500000000, A.D. 2026-Oct-31 00:00:00.0000, 4.583634102058336E+08, 1.508089746658180E+08, -6.456520406908970E+07,
2461351.500000000, A.D. 2026-Nov-07 00:00:00.0000, 4.541947477395992E+08, 1.594239454086047E+08, -6.701482795325445E+07,
2461358.500000000, A.D. 2026-Nov-14 00:00:00.0000, 4.498340324255960E+08, 1.679714447961254E+08, -6.943610987236635E+07,
2461365.500000000, A.D. 2026-Nov-21 00:00:00.0000, 4.452821263853081E+08, 1.764474879029773E+08, -7.182787386757101E+07,
2461372.500000000, A.D. 2026-Nov-28 00:00:00.0000, 4.405399788480955E+08, 1.848480799496341E+08, -7.418894362027022E+07,
2461379.500000000, A.D. 2026-Dec-05 00:00:00.0000, 4.356086267689449E+08, 1.931692161152618E+08, -7.651814304153509E+07,
2461386.500000000, A.D. 2026-Dec-12 00:00:00.0000, 4.304891970431790E+08, 2.014068823527517E+08, -7.881429695487842E+07,
2461393.500000000, A.D. 2026-Dec-19 00:00:00.0000, 4.251829084267994E+08, 2.095570572136638E+08, -8.107623169873461E+07,
2461400.500000000, A.D. 2026-Dec-26 00:00:00.0000, 4.196910730164352E+08, 2.176157138166063E+08, -8.330277570661291E+07,
2461407.500000000, A.D. 2027-Jan-02 00:00:00.0000, 4.140150975607998E+08, 2.255788217695375E+08, -8.549276010594298E+07,
2461414.500000000, A.D. 2027-Jan-09 00:00:00.0000, 4.081564847161085E+08, 2.334423490674696E+08, -8.764501934480917E+07,
2461421.500000000, A.D. 2027-Jan-16 00:00:00.0000, 4.021168342757325E+08, 2.412022639756530E+08, -8.975839184922542E+07,
2461428.500000000, A.D. 2027-Jan-23 00:00:00.0000, 3.958978444146206E+08, 2.488545368598937E+08, -9.183172071859565E+07,
2461435.500000000, A.D. 2027-Jan-30 00:00:00.0000, 3.895013131307046E+08, 2.563951419174582E+08, -9.386385448079693E+07,
2461442.500000000, A.D. 2027-Feb-06 00:00:00.0000, 3.829291403025253E+08, 2.638200591492348E+08, -9.585364791844189E+07,
2461449.500000000, A.D. 2027-Feb-13 00:00:00.0000, 3.761833298960428E+08, 2.711252777923954E+08, -9.779996282432044E+07,
2461456.500000000, A.D. 2027-Feb-20 00:00:00.0000, 3.692659899490170E+08, 2.783068004234492E+08, -9.970166853338087E+07,
2461463.500000000, A.D. 2027-Feb-27 00:00:00.0000, 3.621793317242211E+08, 2.853606445206116E+08, -1.015576426225983E+08,
2461470.500000000, A.D. 2027-Mar-06 00:00:00.0000, 3.549256710457814E+08, 2.922828434080021E+08, -1.033667718991454E+08,
2461477.500000000, A.D. 2027-Mar-13 00:00:00.0000, 3.475074302122585E+08, 2.990694486300792E+08, -1.051279533622733E+08,
2461484.500000000, A.D. 2027-Mar-20 00:00:00.0000, 3.399271393509489E+08, 3.057165329215925E+08, -1.068400951031800E+08,
2461491.500000000, A.D. 2027-Mar-27 00:00:00.0000, 3.321874374099559E+08, 3.122201932240665E+08, -1.085021172060677E+08,
2461498.500000000, A.D. 2027-Apr-03 00:00:00.0000, 3.242910729854851E+08, 3.185765537006355E+08, -1.101129526726316E+08,
2461505.500000000, A.D. 2027-Apr-10 00:00:00.0000, 3.162409050399963E+08, 3.247817687715215E+08, -1.116715483733085E+08,
2461512.500000000, A.D. 2027-Apr-17 00:00:00.0000, 3.080399035275010E+08, 3.308320261548164E+08, -1.131768660279421E+08,
2461519.500000000, A.D. 2027-Apr-24 00:00:00.0000, 2.996911499993494E+08, 3.367235498492410E+08, -1.146278832276111E+08,
2461526.500000000, A.D. 2027-May-01 00:00:00.0000, 2.911978384844438E+08, 3.424526030854484E+08, -1.160235945223038E+08,
2461533.500000000, A.D. 2027-May-08 00:00:00.0000, 2.825632769460001E+08, 3.480154919922685E+08, -1.173630125409662E+08,
2461540.500000000, A.D. 2027-May-15 00:00:00.0000, 2.737908878116589E+08, 3.534085709274963E+08, -1.186451689272928E+08,
2461547.500000000, A.D. 2027-May-22 00:00:00.0000, 2.648842060050890E+08, 3.586282468790023E+08, -1.198691151577490E+08,
2461554.500000000, A.D. 2027-May-29 00:00:00.0000, 2.558468778297579E+08, 3.636709814675162E+08, -1.210339236695260E+08,
2461561.500000000, A.D. 2027-Jun-05 00:00:00.0000, 2.466826615857176E+08, 3.685332936792970E+08, -1.221386891232293E+08,
2461568.500000000, A.D. 2027-Jun-12 00:00:00.0000, 2.373954279059839E+08, 3.732117637551085E+08, -1.231825295790506E+08,
2461575.500000000, A.D. 2027-Jun-19 00:00:00.0000, 2.279891594753963E+08, 3.777030372952637E+08, -1.241645876304011E+08,
2461582.500000000, A.D. 2027-Jun-26 00:00:00.0000, 2.184679504054231E+08, 3.820038293135830E+08, -1.250840315395719E+08,
2461589.500000000, A.D. 2027-Jul-03 00:00:00.0000, 2.088360053905831E+08, 3.861109282421713E+08, -1.259400563839044E+08,
2461596.500000000, A.D. 2027-Jul-10 00:00:00.0000, 1.990976386763276E+08, 3.900211998895716E+08, -1.267318852120111E+08,
2461603.500000000, A.D. 2027-Jul-17 00:00:00.0000, 1.892572728678389E+08, 3.937315913080103E+08, -1.274587702138431E+08,
2461610.500000000, A.D. 2027-Jul-24 00:00:00.0000, 1.793194377301905E+08, 3.972391345021263E+08, -1.281199939221273E+08,
2461617.500000000, A.D. 2027-Jul-31 00:00:00.0000, 1.692887693867713E+08, 4.005409502098773E+08, -1.287148704623644E+08,
2461624.500000000, A.D. 2027-Aug-07 00:00:00.0000, 1.591700097123733E+08, 4.036342529011550E+08, -1.292427467376398E+08,
2461631.500000000, A.D. 2027-Aug-14 00:00:00.0000, 1.489680036167519E+08, 4.065163567313012E+08, -1.297030033549980E+08,
2461638.500000000, A.D. 2027-Aug-21 00:00:00.0000, 1.386876948313179E+08, 4.091846790761263E+08, -1.300950556212542E+08,
2461645.500000000, A.D. 2027-Aug-28 00:00:00.0000, 1.283341236264035E+08, 4.116367428452145E+08, -1.304183548229445E+08,
2461652.500000000, A.D. 2027-Sep-04 00:00:00.0000, 1.179124252762905E+08, 4.138701800666844E+08, -1.306723894753489E+08,
2461659.500000000, A.D. 2027-Sep-11 00:00:00.0000, 1.074278278737821E+08, 4.158827360713450E+08, -1.308566864631325E+08,
2461666.500000000, A.D. 2027-Sep-18 00:00:00.0000, 9.688564962459891E+07, 4.176722736160178E+08, -1.309708121346929E+08,
2461673.500000000, A.D. 2027-Sep-25 00:00:00.0000, 8.629129584838325E+07, 4.192367768585879E+08, -1.310143733745664E+08,
2461680.500000000, A.D. 2027-Oct-02 00:00:00.0000, 7.565025576004490E+07, 4.205743552023784E+08, -1.309870186555588E+08,
2461687.500000000, A.D. 2027-Oct-09 00:00:00.0000, 6.496809905327333E+07, 4.216832469951168E+08, -1.308884390699907E+08,
2461694.500000000, A.D. 2027-Oct-16 00:00:00.0000, 5.425047234939063E+07, 4.225618230171546E+08, -1.307183693472142E+08,
2461701.500000000, A.D. 2027-Oct-23 00:00:00.0000, 4.350309577199005E+07, 4.232085897427033E+08, -1.304765888785767E+08,
2461708.500000000, A.D. 2027-Oct-30 00:00:00.0000, 3.273176002336863E+07, 4.236221929742109E+08, -1.301629227315118E+08,
2461715.500000000, A.D. 2027-Nov-06 00:00:00.0000, 2.194232280236363E+07, 4.238014229677566E+08, -1.297772424513297E+08,
2461722.500000000, A.D. 2027-Nov-13 00:00:00.0000, 1.114070258226088E+07, 4.237452189603557E+08, -1.293194666341774E+08,
2461729.500000000, A.D. 2027-Nov-20 00:00:00.0000, 3.328726524737375E+05, 4.234526709006222E+08, -1.287895617113979E+08,
2461736.500000000, A.D. 2027-Nov-27 00:00:00.0000, -1.047514295495081E+07, 4.229230213383960E+08, -1.281875428495128E+08,
2461743.500000000, A.D. 2027-Dec-04 00:00:00.0000, -2.127727367073247E+07, 4.221556683768613E+08, -1.275134747031072E+08,
2461750.500000000, A.D. 2027-Dec-11 00:00:00.0000, -3.206740726946067E+07, 4.211501687111556E+08, -1.267674720451618E+08,
2461757.500000000, A.D. 2027-Dec-18 00:00:00.0000, -4.283939514446613E+07, 4.199062404028562E+08, -1.259497003241470E+08,
2461764.500000000, A.D. 2027-Dec-25 00:00:00.0000, -5.358705781665695E+07, 4.184237653771060E+08, -1.250603761585643E+08,
2461771.500000000, A.D. 2028-Jan-01 00:00:00.0000, -6.430419062732001E+07, 4.167027916460382E+08, -1.240997677681130E+08,
$$EOE